FLOCK 4G-5              
1 62663U 25009BG  26068.45638436  .00011278  00000+0  40688-3 0  9997
2 62663  97.4058 151.2478 0002094 314.5072  45.5996 15.28679529 63699
STARLINK-36113          
1 66982U 25288Z   26068.24506035  .00028263  00000+0  10333-2 0  9995
2 66982  42.9997  25.5880 0001041 268.0745  91.9988 15.27560673 15225
